0 COSMOS 2251 DEB
1 33981U 93036FQ  13282.94597638  .00005968  00000-0  98217-3 0  9956
2 33981 073.8439 322.5454 0097467 231.8089 194.5188 14.67644240248647
0 COSMOS 2251 DEB
1 33981U 93036FQ  13285.47602345  .00004940  00000-0  81384-3 0  9966
2 33981 073.8440 317.6000 0097367 226.4218 242.1156 14.67666671249013
0 COSMOS 2251 DEB
1 33981U 93036FQ  13287.52203369  .00005598  00000-0  92104-3 0  9970
2 33981 073.8434 313.6006 0097244 222.0745 252.4284 14.67683956249313
0 COSMOS 2251 DEB
1 33981U 93036FQ  13289.15767182  .00006982  00000-0  11466-2 0  9989
2 33981 073.8427 310.4029 0097137 218.5716 254.6473 14.67709630249552
0 COSMOS 2251 DEB
1 33981U 93036FQ  13291.19525311  .00005654  00000-0  92953-3 0  9999
2 33981 073.8423 306.4188 0097012 214.2143 220.7697 14.67731098249856
0 COSMOS 2251 DEB
1 33981U 93036FQ  13293.46091500  .00006530  00000-0  10721-2 0    08
2 33981 073.8424 301.9884 0096839 209.3832 312.1981 14.67753715250186
0 COSMOS 2251 DEB
1 33981U 93036FQ  13295.82833896  .00007280  00000-0  11939-2 0    18
2 33981 073.8429 297.3593 0096717 204.2733 221.5856 14.67778880250538
